NORAD_CAT_ID,OBJECT_NAME,OBJECT_TYPE,EPOCH,MEAN_MOTION,ECCENTRICITY,INCLINATION,RA_OF_ASC_NODE,ARG_OF_PERICENTER,MEAN_ANOMALY,BSTAR,MEAN_MOTION_DOT,MEAN_MOTION_DDOT,TLE_LINE0,TLE_LINE1,TLE_LINE2,SEMIMAJOR_AXIS,PERIOD,APOGEE,PERIGEE,DECAYED
52628.0,STARLINK-4001,PAYLOAD,2024-06-01 03:04:45,15.08856908,7.68e-05,53.2187,306.6471,96.6616,263.4464,0.00020653,3.002e-05,0.0,0 STARLINK-4001,1 52628U 22052AG  24153.12830958  .00003002  00000-0  20653-3 0  9999,2 52628  53.2187 306.6471 0000768  96.6616 263.4464 15.08856908113557,6917.829,95.436,540.225,539.162,0.0
52628.0,STARLINK-4001,PAYLOAD,2024-06-01 14:12:30,15.08826684,7.72e-05,53.2177,304.5675,98.3419,261.7661,-0.000113,-2.085e-05,0.0,0 STARLINK-4001,1 52628U 22052AG  24153.59201950 -.00002085  00000-0 -11300-3 0  9995,2 52628  53.2177 304.5675 0000772  98.3419 261.7661 15.08826684113248,6917.921,95.438,540.32,539.252,0.0
52628.0,STARLINK-4001,PAYLOAD,2024-06-01 20:34:02,15.08833664,8.64e-05,53.218,303.3786,104.221,255.8878,-2.766e-05,-7.28e-06,0.0,0 STARLINK-4001,1 52628U 22052AG  24153.85697493 -.00000728  00000-0 -27660-4 0  9994,2 52628  53.2180 303.3786 0000864 104.2210 255.8878 15.08833664113666,6917.9,95.438,540.362,539.167,0.0
52628.0,STARLINK-4001,PAYLOAD,2024-06-02 02:55:34,15.08843356,8.09e-05,53.2182,302.1891,83.2967,276.8117,2.3245e-05,8.2e-07,0.0,0 STARLINK-4001,1 52628U 22052AG  24154.12192815  .00000082  00000-0  23245-4 0  9999,2 52628  53.2182 302.1891 0000809  83.2967 276.8117 15.08843356113709,6917.87,95.437,540.295,539.175,0.0
52628.0,STARLINK-4001,PAYLOAD,2024-06-02 09:17:07,15.088307,8.78e-05,53.2169,301.0003,84.5993,275.5099,5.5628e-05,5.98e-06,0.0,0 STARLINK-4001,1 52628U 22052AG  24154.38689335  .00000598  00000-0  55628-4 0  9997,2 52628  53.2169 301.0003 0000878  84.5993 275.5099 15.08830700113744,6917.909,95.438,540.381,539.166,0.0
52628.0,STARLINK-4001,PAYLOAD,2024-06-03 02:46:22,15.08840586,0.0001646,53.2196,297.7279,81.7173,278.4005,2.5818e-06,-2.47e-06,0.0,0 STARLINK-4001,1 52628U 22052AG  24155.11553282 -.00000247  00000-0  25818-5 0  9991,2 52628  53.2196 297.7279 0001646  81.7173 278.4005 15.08840586113857,6917.879,95.438,540.882,538.605,0.0
52628.0,STARLINK-4001,PAYLOAD,2024-06-03 15:29:27,15.08838813,0.0001194,53.2179,295.3502,84.399,275.7138,0.00027962,4.165e-05,0.0,0 STARLINK-4001,1 52628U 22052AG  24155.64545262  .00004165  00000-0  27962-3 0  9990,2 52628  53.2179 295.3502 0001194  84.3990 275.7138 15.08838813113559,6917.884,95.438,540.575,538.923,0.0
52628.0,STARLINK-4001,PAYLOAD,2024-06-04 08:58:41,15.08846952,0.0001825,53.2122,292.077,82.7529,277.367,0.00017122,2.438e-05,0.0,0 STARLINK-4001,1 52628U 22052AG  24156.37409124  .00002438  00000-0  17122-3 0  9995,2 52628  53.2122 292.0770 0001825  82.7529 277.3670 15.08846952114046,6917.859,95.437,540.987,538.462,0.0
52628.0,STARLINK-4001,PAYLOAD,2024-06-04 15:20:13,15.08846669,0.0001798,53.2121,290.8871,85.2702,274.8495,0.00017541,2.505e-05,0.0,0 STARLINK-4001,1 52628U 22052AG  24156.63905085  .00002505  00000-0  17541-3 0  9991,2 52628  53.2121 290.8871 0001798  85.2702 274.8495 15.08846669113707,6917.86,95.437,540.969,538.481,0.0
52628.0,STARLINK-4001,PAYLOAD,2024-06-05 12:00:15,15.08823374,0.0001275,53.2174,287.0215,99.5213,260.5923,-0.00023843,-4.079e-05,0.0,0 STARLINK-4001,1 52628U 22052AG  24157.50018126 -.00004079  00000-0 -23843-3 0  9991,2 52628  53.2174 287.0215 0001275  99.5213 260.5923 15.08823374114213,6917.931,95.439,540.678,538.914,0.0
52628.0,STARLINK-4001,PAYLOAD,2024-06-05 15:11:01,15.0882745,0.0001462,53.2175,286.4265,100.5541,259.5616,-0.0001565,-2.777e-05,0.0,0 STARLINK-4001,1 52628U 22052AG  24157.63266066 -.00002777  00000-0 -15650-3 0  9993,2 52628  53.2175 286.4265 0001462 100.5541 259.5616 15.08827450113852,6917.919,95.438,540.795,538.772,0.0
52628.0,STARLINK-4001,PAYLOAD,2024-06-05 18:21:48,15.08830239,0.0001016,53.2178,285.8308,111.0021,249.108,-0.00025255,-4.304e-05,0.0,0 STARLINK-4001,1 52628U 22052AG  24157.76513923 -.00004304  00000-0 -25255-3 0  9994,2 52628  53.2178 285.8308 0001016 111.0021 249.1080 15.08830239113872,6917.91,95.438,540.478,539.072,0.0
52628.0,STARLINK-4001,PAYLOAD,2024-06-06 11:51:02,15.08838479,0.0001247,53.2176,282.5622,100.1695,259.9438,0.00020546,2.983e-05,0.0,0 STARLINK-4001,1 52628U 22052AG  24158.49377996  .00002983  00000-0  20546-3 0  9990,2 52628  53.2176 282.5622 0001247 100.1695 259.9438 15.08838479114360,6917.885,95.438,540.613,538.887,0.0
52628.0,STARLINK-4001,PAYLOAD,2024-06-06 15:01:48,15.08842359,0.0001226,53.2144,281.9652,85.0988,275.0144,0.00028862,4.309e-05,0.0,0 STARLINK-4001,1 52628U 22052AG  24158.62626068  .00004309  00000-0  28862-3 0  9995,2 52628  53.2144 281.9652 0001226  85.0988 275.0144 15.08842359114000,6917.873,95.437,540.586,538.89,0.0
52628.0,STARLINK-4001,PAYLOAD,2024-06-07 08:31:03,15.08835977,8.3e-05,53.2166,278.6955,83.7185,276.3902,0.00030264,4.532e-05,0.0,0 STARLINK-4001,1 52628U 22052AG  24159.35490517  .00004532  00000-0  30264-3 0  9991,2 52628  53.2166 278.6955 0000830  83.7185 276.3902 15.08835977114494,6917.893,95.438,540.332,539.184,0.0
52628.0,STARLINK-4001,PAYLOAD,2024-06-07 14:52:36,15.08831781,0.0001011,53.2167,277.5063,87.9422,272.1685,0.00023987,3.531e-05,0.0,0 STARLINK-4001,1 52628U 22052AG  24159.61986798  .00003531  00000-0  23987-3 0  9993,2 52628  53.2167 277.5063 0001011  87.9422 272.1685 15.08831781114159,6917.906,95.438,540.47,539.071,0.0
52628.0,STARLINK-4001,PAYLOAD,2024-06-08 00:24:54,15.08852068,8.89e-05,53.217,275.7228,86.2424,273.867,0.00030668,4.598e-05,0.0,0 STARLINK-4001,1 52628U 22052AG  24160.01729548  .00004598  00000-0  30668-3 0  9995,2 52628  53.2170 275.7228 0000889  86.2424 273.8670 15.08852068114593,6917.844,95.437,540.323,539.094,0.0
52628.0,STARLINK-4001,PAYLOAD,2024-06-08 11:32:36,15.08842759,0.0001196,53.2169,273.6407,98.4654,261.6474,5.6038e-05,6.04e-06,0.0,0 STARLINK-4001,1 52628U 22052AG  24160.48098217  .00000604  00000-0  56038-4 0  9992,2 52628  53.2169 273.6407 0001196  98.4654 261.6474 15.08842759114660,6917.872,95.437,540.564,538.91,0.0
52628.0,STARLINK-4001,PAYLOAD,2024-06-08 14:43:22,15.08845676,9.53e-05,53.2157,273.0461,79.5118,280.5981,9.1718e-05,1.172e-05,0.0,0 STARLINK-4001,1 52628U 22052AG  24160.61345975  .00001172  00000-0  91718-4 0  9998,2 52628  53.2157 273.0461 0000953  79.5118 280.5981 15.08845676114301,6917.863,95.437,540.387,539.069,0.0
52628.0,STARLINK-4001,PAYLOAD,2024-06-09 00:15:40,15.08858951,9.68e-05,53.2184,271.2603,55.3462,304.7622,0.00028623,4.273e-05,0.0,0 STARLINK-4001,1 52628U 22052AG  24161.01089011  .00004273  00000-0  28623-3 0  9998,2 52628  53.2184 271.2603 0000968  55.3462 304.7622 15.08858951114748,6917.822,95.436,540.357,539.018,0.0
52628.0,STARLINK-4001,PAYLOAD,2024-06-09 11:23:24,15.08823833,0.0001298,53.2166,269.1817,76.9666,283.1471,-0.00012432,-2.265e-05,0.0,0 STARLINK-4001,1 52628U 22052AG  24161.47459057 -.00002265  00000-0 -12432-3 0  9991,2 52628  53.2166 269.1817 0001298  76.9666 283.1471 15.08823833114814,6917.93,95.439,540.693,538.897,0.0
52628.0,STARLINK-4001,PAYLOAD,2024-06-10 00:06:29,15.08839268,0.0001633,53.2185,266.8024,83.6438,276.4741,5.5501e-05,5.95e-06,0.0,0 STARLINK-4001,1 52628U 22052AG  24162.00450505  .00000595  00000-0  55501-4 0  9997,2 52628  53.2185 266.8024 0001633  83.6438 276.4741 15.08839268114896,6917.883,95.438,540.877,538.618,0.0
52628.0,STARLINK-4001,PAYLOAD,2024-06-10 14:24:57,15.088398,0.0001426,53.2176,264.1276,75.7124,284.4026,9.6251e-05,1.244e-05,0.0,0 STARLINK-4001,1 52628U 22052AG  24162.60066714  .00001244  00000-0  96251-4 0  9997,2 52628  53.2176 264.1276 0001426  75.7124 284.4026 15.08839800114606,6917.881,95.438,540.732,538.76,0.0
52628.0,STARLINK-4001,PAYLOAD,2024-06-10 23:57:15,15.08859218,9.04e-05,53.2173,262.3436,64.0183,296.0902,0.00010123,1.325e-05,0.0,0 STARLINK-4001,1 52628U 22052AG  24162.99809411  .00001325  00000-0  10123-3 0  9991,2 52628  53.2173 262.3436 0000904  64.0183 296.0902 15.08859218115043,6917.822,95.436,540.312,539.061,0.0
52628.0,STARLINK-4001,PAYLOAD,2024-06-11 14:15:44,15.0884358,0.0001143,53.2156,259.6668,73.5649,286.5469,0.0002879,4.297e-05,0.0,0 STARLINK-4001,1 52628U 22052AG  24163.59426523  .00004297  00000-0  28790-3 0  9997,2 52628  53.2156 259.6668 0001143  73.5649 286.5469 15.08843580114752,6917.869,95.437,540.525,538.944,0.0
52628.0,STARLINK-4001,PAYLOAD,2024-06-12 06:09:35,15.0884171,0.0001345,53.216,256.694,84.2132,275.9013,0.00011174,1.491e-05,0.0,0 STARLINK-4001,1 52628U 22052AG  24164.25666615  .00001491  00000-0  11174-3 0  9990,2 52628  53.2160 256.6940 0001345  84.2132 275.9013 15.08841710114858,6917.875,95.437,540.671,538.81,0.0
52628.0,STARLINK-4001,PAYLOAD,2024-06-12 12:31:08,15.08838667,0.0001,53.2167,255.5008,97.5652,262.5453,-2.2864e-05,-6.52e-06,0.0,0 STARLINK-4001,1 52628U 22052AG  24164.52162721 -.00000652  00000-0 -22864-4 0  9998,2 52628  53.2167 255.5008 0001000  97.5652 262.5453 15.08838667115274,6917.884,95.438,540.441,539.058,0.0
52628.0,STARLINK-4001,PAYLOAD,2024-06-13 12:21:55,15.0884258,9.51e-05,53.2157,251.0442,91.5605,268.5496,0.00021236,3.094e-05,0.0,0 STARLINK-4001,1 52628U 22052AG  24165.51522731  .00003094  00000-0  21236-3 0  9991,2 52628  53.2157 251.0442 0000951  91.5605 268.5496 15.08842580115049,6917.873,95.437,540.395,539.08,0.0
52628.0,STARLINK-4001,PAYLOAD,2024-06-14 12:12:42,15.08839842,0.0001007,53.2158,246.5808,99.602,260.5085,0.00016294,2.306e-05,0.0,0 STARLINK-4001,1 52628U 22052AG  24166.50882820  .00002306  00000-0  16294-3 0  9992,2 52628  53.2158 246.5808 0001007  99.6020 260.5085 15.08839842115197,6917.881,95.438,540.443,539.049,0.0
52628.0,STARLINK-4001,PAYLOAD,2024-06-14 15:23:29,15.08839832,0.0001029,53.216,245.9865,99.2991,260.8117,0.00014716,2.055e-05,0.0,0 STARLINK-4001,1 52628U 22052AG  24166.64130830  .00002055  00000-0  14716-3 0  9992,2 52628  53.2160 245.9865 0001029  99.2991 260.8117 15.08839832115214,6917.881,95.438,540.458,539.034,0.0
